GLOBALSTAR M035         
1 25851U 99037A   24257.85644682 -.00000070  00000+0 -22854-3 0  9994
2 25851  51.9970 311.2110 0013600 253.5310 277.0282 11.04532654 65732
GLOBALSTAR M051         
1 25853U 99037C   24258.21418220 -.00000025  00000+0  11587-2 0  9993
2 25853  51.9833 346.6423 0001795  91.6963 268.4053 11.42200196100878
GLOBALSTAR M030         
1 25854U 99037D   24257.69154029 -.00000064  00000+0  24167-3 0  9991
2 25854  51.9868 171.5887 0003452 277.6200  82.4225 11.55100601118191
GLOBALSTAR M048         
1 25872U 99041A   24256.61961075 -.00000045  00000+0  68538-3 0  9993
2 25872  51.9354 274.7930 0013302  63.9610  91.4205 11.33849151 93491
GLOBALSTAR M026         
1 25873U 99041B   24256.91619340 -.00000130  00000+0 -24193-2 0  9996
2 25873  52.0013  74.1745 0001866 116.0040  33.9830 11.06833678117782
GLOBALSTAR M043         
1 25874U 99041C   24257.49095984 -.00000132  00000+0 -18897-2 0  9999
2 25874  51.9444   9.3367 0012963 196.4695 244.0361 11.25685978 91747
GLOBALSTAR M028         
1 25875U 99041D   24257.85340437  .00000011  00000+0  71911-3 0  9997
2 25875  51.9626 297.0351 0063530 191.1382 168.8075 12.50564782155632
